NORAD_CAT_ID,OBJECT_NAME,OBJECT_TYPE,EPOCH,MEAN_MOTION,ECCENTRICITY,INCLINATION,RA_OF_ASC_NODE,ARG_OF_PERICENTER,MEAN_ANOMALY,BSTAR,MEAN_MOTION_DOT,MEAN_MOTION_DDOT,TLE_LINE0,TLE_LINE1,TLE_LINE2,SEMIMAJOR_AXIS,PERIOD,APOGEE,PERIGEE,DECAYED
53934.0,STARLINK-4775,PAYLOAD,2023-05-21 11:21:08,15.08865783,0.0001624,53.2175,212.5695,98.1704,261.9472,-0.00027115,-4.604e-05,0.0,0 STARLINK-4775,1 53934U 22119BA  23141.47301456 -.00004604  00000-0 -27115-3 0  9995,2 53934  53.2175 212.5695 0001624  98.1704 261.9472 15.08865783 37586,6917.802,95.436,540.79,538.543,0.0
53934.0,STARLINK-4775,PAYLOAD,2023-05-21 14:31:54,15.08874734,0.0001623,53.2168,211.9735,105.8645,254.2527,-0.00035898,-6.002e-05,0.0,0 STARLINK-4775,1 53934U 22119BA  23141.60548776 -.00006002  00000-0 -35898-3 0  9999,2 53934  53.2168 211.9735 0001623 105.8645 254.2527 15.08874734 37161,6917.774,95.435,540.762,538.516,0.0
53934.0,STARLINK-4775,PAYLOAD,2023-05-22 04:50:24,15.08833125,0.0001077,53.2158,209.2959,100.0775,260.0339,-5.7412e-05,-1.201e-05,0.0,0 STARLINK-4775,1 53934U 22119BA  23142.20166843 -.00001201  00000-0 -57412-4 0  9990,2 53934  53.2158 209.2959 0001077 100.0775 260.0339 15.08833125 37257,6917.901,95.438,540.511,539.021,0.0
53934.0,STARLINK-4775,PAYLOAD,2023-05-22 11:11:56,15.08836602,0.0001189,53.2175,208.1109,82.4564,277.6563,-3.2992e-05,-8.13e-06,0.0,0 STARLINK-4775,1 53934U 22119BA  23142.46662753 -.00000813  00000-0 -32992-4 0  9993,2 53934  53.2175 208.1109 0001189  82.4564 277.6563 15.08836602 37733,6917.891,95.438,540.578,538.933,0.0
53934.0,STARLINK-4775,PAYLOAD,2023-05-22 20:44:15,15.08841381,9.47e-05,53.2165,206.324,93.904,266.2061,-7.5961e-05,-1.496e-05,0.0,0 STARLINK-4775,1 53934U 22119BA  23142.86406478 -.00001496  00000-0 -75961-4 0  9998,2 53934  53.2165 206.3240 0000947  93.9040 266.2061 15.08841381 37798,6917.876,95.437,540.396,539.086,0.0
53934.0,STARLINK-4775,PAYLOAD,2023-05-23 09:27:20,15.08832156,0.000118,53.2177,203.9486,85.5745,274.5382,1.7986e-05,-2e-08,0.0,0 STARLINK-4775,1 53934U 22119BA  23143.39399210 -.00000002  00000-0  17986-4 0  9996,2 53934  53.2177 203.9486 0001180  85.5745 274.5382 15.08832156 37434,6917.904,95.438,540.586,538.953,0.0
53934.0,STARLINK-4775,PAYLOAD,2023-05-23 20:35:02,15.0883666,0.0001203,53.2176,201.8676,111.1294,248.9827,1.3496e-05,-7.3e-07,0.0,0 STARLINK-4775,1 53934U 22119BA  23143.85767034 -.00000073  00000-0  13496-4 0  9990,2 53934  53.2176 201.8676 0001203 111.1294 248.9827 15.08836660 37941,6917.891,95.438,540.588,538.923,0.0
53934.0,STARLINK-4775,PAYLOAD,2023-05-24 07:42:44,15.08836754,0.0001117,53.2175,199.7856,96.9487,263.1632,0.00017215,2.453e-05,0.0,0 STARLINK-4775,1 53934U 22119BA  23144.32134893  .00002453  00000-0  17215-3 0  9999,2 53934  53.2175 199.7856 0001117  96.9487 263.1632 15.08836754 37579,6917.89,95.438,540.528,538.983,0.0
53934.0,STARLINK-4775,PAYLOAD,2023-05-26 02:38:09,15.088424,0.0001173,53.2168,191.7544,92.4626,267.65,4.6109e-05,4.46e-06,0.0,0 STARLINK-4775,1 53934U 22119BA  23146.10983195  .00000446  00000-0  46109-4 0  9999,2 53934  53.2168 191.7544 0001173  92.4626 267.6500 15.08842400 37843,6917.873,95.437,540.55,538.927,0.0
53934.0,STARLINK-4775,PAYLOAD,2023-05-26 10:35:05,15.08841888,0.000116,53.2168,190.2672,93.0473,267.0652,4.6596e-05,4.54e-06,0.0,0 STARLINK-4775,1 53934U 22119BA  23146.44103151  .00000454  00000-0  46596-4 0  9991,2 53934  53.2168 190.2672 0001160  93.0473 267.0652 15.08841888 38338,6917.875,95.437,540.542,538.937,0.0
53934.0,STARLINK-4775,PAYLOAD,2023-05-27 08:50:29,15.08836934,0.0001121,53.2165,186.1036,94.3617,265.7503,1.3555e-05,-7.2e-07,0.0,0 STARLINK-4775,1 53934U 22119BA  23147.36839577 -.00000072  00000-0  13555-4 0  9997,2 53934  53.2165 186.1036 0001121  94.3617 265.7503 15.08836934 38037,6917.89,95.438,540.53,538.979,0.0
53934.0,STARLINK-4775,PAYLOAD,2023-05-27 19:58:11,15.08839117,0.0001116,53.2162,184.0218,90.7647,269.3473,3.465e-05,2.64e-06,0.0,0 STARLINK-4775,1 53934U 22119BA  23147.83207424  .00000264  00000-0  34650-4 0  9990,2 53934  53.2162 184.0218 0001116  90.7647 269.3473 15.08839117 38548,6917.883,95.438,540.52,538.976,0.0
53934.0,STARLINK-4775,PAYLOAD,2023-05-27 23:08:57,15.08840532,0.0001115,53.216,183.4273,81.8898,278.2221,5.7846e-05,6.33e-06,0.0,0 STARLINK-4775,1 53934U 22119BA  23147.96455281  .00000633  00000-0  57846-4 0  9992,2 53934  53.2160 183.4273 0001115  81.8898 278.2221 15.08840532 38563,6917.879,95.438,540.515,538.972,0.0
53934.0,STARLINK-4775,PAYLOAD,2023-05-28 08:41:15,15.08844153,0.0001116,53.2161,181.6431,82.3577,277.7542,7.3033e-05,8.75e-06,0.0,0 STARLINK-4775,1 53934U 22119BA  23148.36198985  .00000875  00000-0  73033-4 0  9996,2 53934  53.2161 181.6431 0001116  82.3577 277.7542 15.08844153 38182,6917.868,95.437,540.505,538.961,0.0
53934.0,STARLINK-4775,PAYLOAD,2023-05-28 19:48:57,15.08844746,0.0001116,53.2162,179.5618,81.4174,278.6944,8.662e-05,1.091e-05,0.0,0 STARLINK-4775,1 53934U 22119BA  23148.82566823  .00001091  00000-0  86620-4 0  9994,2 53934  53.2162 179.5618 0001116  81.4174 278.6944 15.08844746 38699,6917.866,95.437,540.503,538.959,0.0
53934.0,STARLINK-4775,PAYLOAD,2023-05-29 11:42:49,15.08843993,0.0001122,53.2162,176.588,82.0712,278.0408,9.3353e-05,1.198e-05,0.0,0 STARLINK-4775,1 53934U 22119BA  23149.48806729  .00001198  00000-0  93353-4 0  9998,2 53934  53.2162 176.5880 0001122  82.0712 278.0408 15.08843993 38792,6917.868,95.437,540.509,538.957,0.0
53934.0,STARLINK-4775,PAYLOAD,2023-05-30 02:01:18,15.08835474,0.0001155,53.2158,173.9112,83.967,276.1454,-4.4938e-05,-1.003e-05,0.0,0 STARLINK-4775,1 53934U 22119BA  23150.08423656 -.00001003  00000-0 -44938-4 0  9992,2 53934  53.2158 173.9112 0001155  83.9670 276.1454 15.08835474 38442,6917.894,95.438,540.558,538.96,0.0
53934.0,STARLINK-4775,PAYLOAD,2023-05-30 08:22:50,15.088342,0.0001129,53.2159,172.7215,86.2095,273.9026,-5.1987e-05,-1.115e-05,0.0,0 STARLINK-4775,1 53934U 22119BA  23150.34919767 -.00001115  00000-0 -51987-4 0  9990,2 53934  53.2159 172.7215 0001129  86.2095 273.9026 15.08834200 38921,6917.898,95.438,540.544,538.982,0.0
53934.0,STARLINK-4775,PAYLOAD,2023-05-31 08:13:37,15.0883744,0.0001123,53.2158,168.2603,84.5538,275.5582,-4.6476e-06,-3.62e-06,0.0,0 STARLINK-4775,1 53934U 22119BA  23151.34279615 -.00000362  00000-0 -46476-5 0  9993,2 53934  53.2158 168.2603 0001123  84.5538 275.5582 15.08837440 38630,6917.888,95.438,540.53,538.976,0.0
53934.0,STARLINK-4775,PAYLOAD,2023-05-31 17:45:56,15.08837411,0.0001107,53.2158,166.4763,79.4804,280.6313,2.7009e-05,1.42e-06,0.0,0 STARLINK-4775,1 53934U 22119BA  23151.74023596  .00000142  00000-0  27009-4 0  9996,2 53934  53.2158 166.4763 0001107  79.4804 280.6313 15.08837411 39131,6917.888,95.438,540.519,538.987,0.0
53934.0,STARLINK-4775,PAYLOAD,2023-06-01 08:04:24,15.08835762,0.0001113,53.2161,163.8013,83.8737,276.2381,0.00010453,1.376e-05,0.0,0 STARLINK-4775,1 53934U 22119BA  23152.33639682  .00001376  00000-0  10453-3 0  9995,2 53934  53.2161 163.8013 0001113  83.8737 276.2381 15.08835762 39228,6917.893,95.438,540.528,538.988,0.0
53934.0,STARLINK-4775,PAYLOAD,2023-06-02 09:30:34,15.08839186,0.0001125,53.2161,159.0435,85.3369,274.7752,6.6584e-05,7.72e-06,0.0,0 STARLINK-4775,1 53934U 22119BA  23153.39623790  .00000772  00000-0  66584-4 0  9991,2 53934  53.2161 159.0435 0001125  85.3369 274.7752 15.08839186 38941,6917.883,95.438,540.526,538.97,0.0
53934.0,STARLINK-4775,PAYLOAD,2023-06-02 17:27:30,15.08838669,0.000113,53.2163,157.5568,86.3454,273.7668,4.9543e-05,5.01e-06,0.0,0 STARLINK-4775,1 53934U 22119BA  23153.72743925  .00000501  00000-0  49543-4 0  9997,2 53934  53.2163 157.5568 0001130  86.3454 273.7668 15.08838669 39430,6917.884,95.438,540.531,538.968,0.0
53934.0,STARLINK-4775,PAYLOAD,2023-06-03 09:21:22,15.08840299,0.0001126,53.2163,154.5832,87.0575,273.0546,3.8237e-05,3.21e-06,0.0,0 STARLINK-4775,1 53934U 22119BA  23154.38983878  .00000321  00000-0  38237-4 0  9991,2 53934  53.2163 154.5832 0001126  87.0575 273.0546 15.08840299 39539,6917.879,95.438,540.523,538.966,0.0
53934.0,STARLINK-4775,PAYLOAD,2023-06-03 17:18:17,15.08840548,0.000112,53.2165,153.0965,86.4143,273.6978,3.9992e-05,3.49e-06,0.0,0 STARLINK-4775,1 53934U 22119BA  23154.72103824  .00000349  00000-0  39992-4 0  9993,2 53934  53.2165 153.0965 0001120  86.4143 273.6978 15.08840548 39149,6917.879,95.438,540.519,538.969,0.0
53934.0,STARLINK-4775,PAYLOAD,2023-06-04 09:12:08,15.08842927,0.0001129,53.2163,150.1226,86.8981,273.214,5.3329e-05,5.61e-06,0.0,0 STARLINK-4775,1 53934U 22119BA  23155.38343578  .00000561  00000-0  53329-4 0  9994,2 53934  53.2163 150.1226 0001129  86.8981 273.2140 15.08842927 39687,6917.871,95.437,540.517,538.955,0.0
53934.0,STARLINK-4775,PAYLOAD,2023-06-05 04:16:46,15.08840475,0.0001136,53.2162,146.5545,85.5584,274.5538,4.916e-05,4.95e-06,0.0,0 STARLINK-4775,1 53934U 22119BA  23156.17831669  .00000495  00000-0  49160-4 0  9999,2 53934  53.2162 146.5545 0001136  85.5584 274.5538 15.08840475 39368,6917.879,95.438,540.53,538.958,0.0
53934.0,STARLINK-4775,PAYLOAD,2023-06-05 05:52:09,15.08841649,0.0001133,53.2161,146.257,86.4759,273.6362,5.9181e-05,6.54e-06,0.0,0 STARLINK-4775,1 53934U 22119BA  23156.24455553  .00000654  00000-0  59181-4 0  9992,2 53934  53.2161 146.2570 0001133  86.4759 273.6362 15.08841649 39812,6917.875,95.437,540.524,538.957,0.0
53934.0,STARLINK-4775,PAYLOAD,2023-06-06 08:53:43,15.08837317,0.0001175,53.2161,141.2014,89.8725,270.2402,-2.7516e-06,-3.32e-06,0.0,0 STARLINK-4775,1 53934U 22119BA  23157.37064077 -.00000332  00000-0 -27516-5 0  9997,2 53934  53.2161 141.2014 0001175  89.8725 270.2402 15.08837317 39541,6917.889,95.438,540.566,538.941,0.0
53934.0,STARLINK-4775,PAYLOAD,2023-06-07 08:44:30,15.08841758,0.0001125,53.2163,136.7411,89.0809,271.0312,4.7194e-05,4.63e-06,0.0,0 STARLINK-4775,1 53934U 22119BA  23158.36423728  .00000463  00000-0  47194-4 0  9995,2 53934  53.2163 136.7411 0001125  89.0809 271.0312 15.08841758 40133,6917.875,95.437,540.518,538.962,0.0
